STARLINK-6097           
1 57105U 23090E   25307.53933145  .00005072  00000+0  39039-3 0  9992
2 57105  43.0059 240.4162 0001207 282.9198  77.1509 15.02525459131438
STARLINK-6118           
1 57106U 23090F   25306.13774771  .00000687  00000+0  65925-4 0  9997
2 57106  43.0048 247.9536 0001298 274.2132  85.8562 15.02532325131228
STARLINK-6131           
1 57107U 23090G   25307.52046098 -.00000005  00000+0  14737-4 0  9996
2 57107  43.0041 240.2749 0001147 269.0712  90.9999 15.02534246131431
STARLINK-6099           
1 57108U 23090H   25307.80192750 -.00000147  00000+0  41516-5 0  9998
2 57108  43.0035 238.9402 0000991 262.7774  97.2956 15.02528951131472
STARLINK-6139           
1 57109U 23090J   25307.65895760  .00001439  00000+0  12159-3 0  9996
2 57109  43.0045 239.5944 0001406 265.4568  94.6113 15.02541539131456
STARLINK-6134           
1 57110U 23090K   25307.53710441  .00001547  00000+0  12956-3 0  9992
2 57110  43.0018 240.3995 0001480 271.5029  88.5644 15.02541900131437
STARLINK-6140           
1 57111U 23090L   25306.11776879 -.00000428  00000+0 -16620-4 0  9995
2 57111  43.0063 247.8114 0001352 267.5231  92.5456 15.02530616131226
STARLINK-6141           
1 57112U 23090M   25307.79637685  .00000545  00000+0  55447-4 0  9990
2 57112  43.0053 238.9030 0001643 267.9073  92.1581 15.02528366131476
STARLINK-6142           
1 57113U 23090N   25307.51934765  .00000834  00000+0  76840-4 0  9991
2 57113  43.0045 240.2650 0001259 264.8023  95.2675 15.02535147131435
STARLINK-6125           
1 57114U 23090P   25307.51602434 -.00001124  00000+0 -68148-4 0  9994
2 57114  43.0024 240.2362 0001025 294.4774  65.5961 15.02552443131432
STARLINK-6085           
1 57115U 23090Q   25305.82836018  .00016407  00000+0  10702-2 0  9993
2 57115  42.9995 246.5423 0009060 108.7476 251.4352 15.07610751131216
STARLINK-6129           
1 57116U 23090R   25307.52268017  .00000162  00000+0  27026-4 0  9991
2 57116  43.0033 240.2899 0001259 271.2420  88.8278 15.02539181131432
STARLINK-6148           
1 57117U 23090S   25307.83953039  .00000135  00000+0  25061-4 0  9998
2 57117  43.0025 238.3663 0001111 267.8863  92.1852 15.02537572131472
STARLINK-6151           
1 57118U 23090T   25306.43651332  .00099428  00000+0  12666-2 0  9993
2 57118  42.9899 201.3750 0007331 229.3408 130.6818 15.58257896131799
STARLINK-6150           
1 57119U 23090U   25306.30609860  .00000427  00000+0  46687-4 0  9992
2 57119  43.0045 246.6409 0001195 274.6839  85.3867 15.02540091131253
STARLINK-6147           
1 57120U 23090V   25307.84175223 -.00000279  00000+0 -55819-5 0  9990
2 57120  43.0028 238.3824 0001087 271.7821  88.2897 15.02535665131485
STARLINK-6152           
1 57121U 23090W   25305.89835707  .00000009  00000+0  15736-4 0  9996
2 57121  43.0052 248.7388 0001302 268.0205  92.0489 15.02533065131008
