[{"OBJECT_NAME":"STARLINK-6097","OBJECT_ID":"2023-090E","EPOCH":"2025-11-03T12:56:38.237280","MEAN_MOTION":15.02525459,"ECCENTRICITY":0.0001207,"INCLINATION":43.0059,"RA_OF_ASC_NODE":240.4162,"ARG_OF_PERICENTER":282.9198,"MEAN_ANOMALY":77.1509,"EPHEMERIS_TYPE":0,"CLASSIFICATION_TYPE":"U","NORAD_CAT_ID":57105,"ELEMENT_SET_NO":999,"REV_AT_EPOCH":13143,"BSTAR":0.00039039,"MEAN_MOTION_DOT":5.072e-5,"MEAN_MOTION_DDOT":0},{"OBJECT_NAME":"STARLINK-6118","OBJECT_ID":"2023-090F","EPOCH":"2025-11-02T03:18:21.402144","MEAN_MOTION":15.02532325,"ECCENTRICITY":0.00012984,"INCLINATION":43.0048,"RA_OF_ASC_NODE":247.9536,"ARG_OF_PERICENTER":274.2132,"MEAN_ANOMALY":85.8562,"EPHEMERIS_TYPE":0,"CLASSIFICATION_TYPE":"U","NORAD_CAT_ID":57106,"ELEMENT_SET_NO":999,"REV_AT_EPOCH":13122,"BSTAR":6.5924597e-5,"MEAN_MOTION_DOT":6.87e-6,"MEAN_MOTION_DDOT":0},{"OBJECT_NAME":"STARLINK-6131","OBJECT_ID":"2023-090G","EPOCH":"2025-11-03T12:29:27.828672","MEAN_MOTION":15.02534246,"ECCENTRICITY":0.0001147,"INCLINATION":43.0041,"RA_OF_ASC_NODE":240.2749,"ARG_OF_PERICENTER":269.0712,"MEAN_ANOMALY":90.9999,"EPHEMERIS_TYPE":0,"CLASSIFICATION_TYPE":"U","NORAD_CAT_ID":57107,"ELEMENT_SET_NO":999,"REV_AT_EPOCH":13143,"BSTAR":1.4737e-5,"MEAN_MOTION_DOT":-5.0e-8,"MEAN_MOTION_DDOT":0},{"OBJECT_NAME":"STARLINK-6099","OBJECT_ID":"2023-090H","EPOCH":"2025-11-03T19:14:46.536000","MEAN_MOTION":15.02528951,"ECCENTRICITY":9.91e-5,"INCLINATION":43.0035,"RA_OF_ASC_NODE":238.9402,"ARG_OF_PERICENTER":262.7774,"MEAN_ANOMALY":97.2956,"EPHEMERIS_TYPE":0,"CLASSIFICATION_TYPE":"U","NORAD_CAT_ID":57108,"ELEMENT_SET_NO":999,"REV_AT_EPOCH":13147,"BSTAR":4.1516e-6,"MEAN_MOTION_DOT":-1.47e-6,"MEAN_MOTION_DDOT":0},{"OBJECT_NAME":"STARLINK-6139","OBJECT_ID":"2023-090J","EPOCH":"2025-11-03T15:48:53.936640","MEAN_MOTION":15.02541539,"ECCENTRICITY":0.0001406,"INCLINATION":43.0045,"RA_OF_ASC_NODE":239.5944,"ARG_OF_PERICENTER":265.4568,"MEAN_ANOMALY":94.6113,"EPHEMERIS_TYPE":0,"CLASSIFICATION_TYPE":"U","NORAD_CAT_ID":57109,"ELEMENT_SET_NO":999,"REV_AT_EPOCH":13145,"BSTAR":0.00012159,"MEAN_MOTION_DOT":1.439e-5,"MEAN_MOTION_DDOT":0},{"OBJECT_NAME":"STARLINK-6134","OBJECT_ID":"2023-090K","EPOCH":"2025-11-03T12:53:25.821024","MEAN_MOTION":15.025419,"ECCENTRICITY":0.000148,"INCLINATION":43.0018,"RA_OF_ASC_NODE":240.3995,"ARG_OF_PERICENTER":271.5029,"MEAN_ANOMALY":88.5644,"EPHEMERIS_TYPE":0,"CLASSIFICATION_TYPE":"U","NORAD_CAT_ID":57110,"ELEMENT_SET_NO":999,"REV_AT_EPOCH":13143,"BSTAR":0.00012956,"MEAN_MOTION_DOT":1.547e-5,"MEAN_MOTION_DDOT":0},{"OBJECT_NAME":"STARLINK-6140","OBJECT_ID":"2023-090L","EPOCH":"2025-11-02T02:49:35.223456","MEAN_MOTION":15.02530616,"ECCENTRICITY":0.00013523,"INCLINATION":43.0063,"RA_OF_ASC_NODE":247.8114,"ARG_OF_PERICENTER":267.5231,"MEAN_ANOMALY":92.5456,"EPHEMERIS_TYPE":0,"CLASSIFICATION_TYPE":"U","NORAD_CAT_ID":57111,"ELEMENT_SET_NO":999,"REV_AT_EPOCH":13122,"BSTAR":-1.6619538e-5,"MEAN_MOTION_DOT":-4.28e-6,"MEAN_MOTION_DDOT":0},{"OBJECT_NAME":"STARLINK-6141","OBJECT_ID":"2023-090M","EPOCH":"2025-11-03T19:06:46.959840","MEAN_MOTION":15.02528366,"ECCENTRICITY":0.0001643,"INCLINATION":43.0053,"RA_OF_ASC_NODE":238.903,"ARG_OF_PERICENTER":267.9073,"MEAN_ANOMALY":92.1581,"EPHEMERIS_TYPE":0,"CLASSIFICATION_TYPE":"U","NORAD_CAT_ID":57112,"ELEMENT_SET_NO":999,"REV_AT_EPOCH":13147,"BSTAR":5.5447e-5,"MEAN_MOTION_DOT":5.45e-6,"MEAN_MOTION_DDOT":0},{"OBJECT_NAME":"STARLINK-6142","OBJECT_ID":"2023-090N","EPOCH":"2025-11-03T12:27:51.636960","MEAN_MOTION":15.02535147,"ECCENTRICITY":0.0001259,"INCLINATION":43.0045,"RA_OF_ASC_NODE":240.265,"ARG_OF_PERICENTER":264.8023,"MEAN_ANOMALY":95.2675,"EPHEMERIS_TYPE":0,"CLASSIFICATION_TYPE":"U","NORAD_CAT_ID":57113,"ELEMENT_SET_NO":999,"REV_AT_EPOCH":13143,"BSTAR":7.684e-5,"MEAN_MOTION_DOT":8.34e-6,"MEAN_MOTION_DDOT":0},{"OBJECT_NAME":"STARLINK-6125","OBJECT_ID":"2023-090P","EPOCH":"2025-11-03T12:23:04.502976","MEAN_MOTION":15.02552443,"ECCENTRICITY":0.0001025,"INCLINATION":43.0024,"RA_OF_ASC_NODE":240.2362,"ARG_OF_PERICENTER":294.4774,"MEAN_ANOMALY":65.5961,"EPHEMERIS_TYPE":0,"CLASSIFICATION_TYPE":"U","NORAD_CAT_ID":57114,"ELEMENT_SET_NO":999,"REV_AT_EPOCH":13143,"BSTAR":-6.8148e-5,"MEAN_MOTION_DOT":-1.124e-5,"MEAN_MOTION_DDOT":0},{"OBJECT_NAME":"STARLINK-6085","OBJECT_ID":"2023-090Q","EPOCH":"2025-11-01T19:52:50.319552","MEAN_MOTION":15.07610751,"ECCENTRICITY":0.00090604,"INCLINATION":42.9995,"RA_OF_ASC_NODE":246.5423,"ARG_OF_PERICENTER":108.7476,"MEAN_ANOMALY":251.4352,"EPHEMERIS_TYPE":0,"CLASSIFICATION_TYPE":"U","NORAD_CAT_ID":57115,"ELEMENT_SET_NO":999,"REV_AT_EPOCH":13121,"BSTAR":0.0010702353,"MEAN_MOTION_DOT":0.00016407,"MEAN_MOTION_DDOT":0},{"OBJECT_NAME":"STARLINK-6129","OBJECT_ID":"2023-090R","EPOCH":"2025-11-03T12:32:39.566688","MEAN_MOTION":15.02539181,"ECCENTRICITY":0.0001259,"INCLINATION":43.0033,"RA_OF_ASC_NODE":240.2899,"ARG_OF_PERICENTER":271.242,"MEAN_ANOMALY":88.8278,"EPHEMERIS_TYPE":0,"CLASSIFICATION_TYPE":"U","NORAD_CAT_ID":57116,"ELEMENT_SET_NO":999,"REV_AT_EPOCH":13143,"BSTAR":2.7026e-5,"MEAN_MOTION_DOT":1.62e-6,"MEAN_MOTION_DDOT":0},{"OBJECT_NAME":"STARLINK-6148","OBJECT_ID":"2023-090S","EPOCH":"2025-11-03T20:08:55.425696","MEAN_MOTION":15.02537572,"ECCENTRICITY":0.0001111,"INCLINATION":43.0025,"RA_OF_ASC_NODE":238.3663,"ARG_OF_PERICENTER":267.8863,"MEAN_ANOMALY":92.1852,"EPHEMERIS_TYPE":0,"CLASSIFICATION_TYPE":"U","NORAD_CAT_ID":57117,"ELEMENT_SET_NO":999,"REV_AT_EPOCH":13147,"BSTAR":2.5061e-5,"MEAN_MOTION_DOT":1.35e-6,"MEAN_MOTION_DDOT":0},{"OBJECT_NAME":"STARLINK-6151","OBJECT_ID":"2023-090T","EPOCH":"2025-11-02T10:28:34.750848","MEAN_MOTION":15.58257896,"ECCENTRICITY":0.0007331,"INCLINATION":42.9899,"RA_OF_ASC_NODE":201.375,"ARG_OF_PERICENTER":229.3408,"MEAN_ANOMALY":130.6818,"EPHEMERIS_TYPE":0,"CLASSIFICATION_TYPE":"U","NORAD_CAT_ID":57118,"ELEMENT_SET_NO":999,"REV_AT_EPOCH":13179,"BSTAR":0.0012666,"MEAN_MOTION_DOT":0.00099428,"MEAN_MOTION_DDOT":0},{"OBJECT_NAME":"STARLINK-6150","OBJECT_ID":"2023-090U","EPOCH":"2025-11-02T07:20:46.919040","MEAN_MOTION":15.02540091,"ECCENTRICITY":0.0001195,"INCLINATION":43.0045,"RA_OF_ASC_NODE":246.6409,"ARG_OF_PERICENTER":274.6839,"MEAN_ANOMALY":85.3867,"EPHEMERIS_TYPE":0,"CLASSIFICATION_TYPE":"U","NORAD_CAT_ID":57119,"ELEMENT_SET_NO":999,"REV_AT_EPOCH":13125,"BSTAR":4.6687e-5,"MEAN_MOTION_DOT":4.27e-6,"MEAN_MOTION_DDOT":0},{"OBJECT_NAME":"STARLINK-6147","OBJECT_ID":"2023-090V","EPOCH":"2025-11-03T20:12:07.392672","MEAN_MOTION":15.02535665,"ECCENTRICITY":0.0001087,"INCLINATION":43.0028,"RA_OF_ASC_NODE":238.3824,"ARG_OF_PERICENTER":271.7821,"MEAN_ANOMALY":88.2897,"EPHEMERIS_TYPE":0,"CLASSIFICATION_TYPE":"U","NORAD_CAT_ID":57120,"ELEMENT_SET_NO":999,"REV_AT_EPOCH":13148,"BSTAR":-5.5819e-6,"MEAN_MOTION_DOT":-2.79e-6,"MEAN_MOTION_DDOT":0},{"OBJECT_NAME":"STARLINK-6152","OBJECT_ID":"2023-090W","EPOCH":"2025-11-01T21:33:38.050848","MEAN_MOTION":15.02533065,"ECCENTRICITY":0.00013025,"INCLINATION":43.0052,"RA_OF_ASC_NODE":248.7388,"ARG_OF_PERICENTER":268.0205,"MEAN_ANOMALY":92.0489,"EPHEMERIS_TYPE":0,"CLASSIFICATION_TYPE":"U","NORAD_CAT_ID":57121,"ELEMENT_SET_NO":999,"REV_AT_EPOCH":13100,"BSTAR":1.5736445e-5,"MEAN_MOTION_DOT":9.0e-8,"MEAN_MOTION_DDOT":0}]
